#aV2013  1 15  0  0  0.00000000     288 DD+AD WGS84 FIT  NGA
## 1723 172800.00000000   300.00000000 56307 0.0000000000000
+   31     1  2  3  4  5  6  7  8  9 10 11 12 13 14 15 16 17
+         18 19 20 21 22 23 24 25 26 28 29 30 31 32  0  0  0
+          0  0  0  0  0  0  0  0  0  0  0  0  0  0  0  0  0
+          0  0  0  0  0  0  0  0  0  0  0  0  0  0  0  0  0
+          0  0  0  0  0  0  0  0  0  0  0  0  0  0  0  0  0
++         2  2  2  2  2  2  2  2  2  2  2  2  2  2  2  2  2
++         2  2  2  2  2  2  2  2  2  2  2  2  2  2  2  0  0
++         0  0  0  0  0  0  0  0  0  0  0  0  0  0  0  0  0
++         0  0  0  0  0  0  0  0  0  0  0  0  0  0  0  0  0
++         0  0  0  0  0  0  0  0  0  0  0  0  0  0  0  0  0
%c cc cc ccc ccc cccc cccc cccc cccc ccccc ccccc ccccc ccccc
%c cc cc ccc ccc cccc cccc cccc cccc ccccc ccccc ccccc ccccc
%f  0.0000000  0.000000000  0.00000000000  0.000000000000000
%f  0.0000000  0.000000000  0.00000000000  0.000000000000000
%i    0    0    0    0      0      0      0      0         0
%i    0    0    0    0      0      0      0      0         0
/*      NGA, ST. LOUIS,MO.                                  
/*   EPHEMERIS COMPUTED FROM  1 DAYS OF DATA
/*   EPOCHA SMOOTHER  
/* CCCCCCCCCCCCCCCCCCCCCCCCCCCCCCCCCCCCCCCCCCCCCCCCCCCCCCCCC
*  2013  1 15 16 10  0.00000000                                                 
P  1   3729.634418  14781.612796 -21773.663335    293.587654                    
V  1 -26917.721826   6067.003281   -428.102622      0.023399                    
P  2  18041.647999 -14236.122547  13023.913516    414.931021                    
V  2  16787.933022   -900.485657 -25075.730032      0.012770                    
P  3  -8801.290561  23937.808467   6465.721722    155.378721                    
V  3  -2281.963392  -9442.834809  29800.698338      0.048713                    
P  4  26074.152416  -5838.174127   -115.916412    105.767398                    
V  4    908.332531   3175.948555 -31046.463074      0.110856                    
P  5   5312.984435 -15919.038233  20522.795596   -378.711357                    
V  5  18559.130033  18533.499644   9695.021743     -0.020571                    
P  6 -13639.399234  19349.187778  11791.001234    387.429141                    
V  6    562.768347 -15305.991467  26314.560981     -0.137430                    
P  7  19179.753682   7723.259764  16874.901554    169.252125                    
V  7 -20499.145097   5558.889970  20530.050462      0.044014                    
P  8  25837.841116   1752.987018   7263.090514      4.015586                    
V  8  -8732.217042   2050.641423  30439.772454      0.002626                    
P  9  11205.799541 -15513.797597 -18971.563737    213.891574                    
V  9  22526.978554  -4234.906998  17217.506437      0.027515                    
P 10  18970.707788   1270.472744  18423.658923    -66.284197                    
V 10  14698.846181  18904.540795 -15777.818934     -0.014213                    
P 11  -1711.201255  18717.162777 -19108.715089   -343.781091                    
V 11 -21778.948256   9767.507363  12074.845504     -0.038060                    
P 12  -9548.972506 -22287.405139 -11091.035659    112.514199                    
V 12  10425.672881   9427.852450 -27774.041727      0.020591                    
P 13   7599.832001  15808.692744  19769.687159    152.303182                    
V 13 -10830.098852  22977.776460 -14220.488771     -0.028787                    
P 14 -16179.765260   3122.364642 -20603.885116    219.588520                    
V 14   8850.859330 -25096.779390 -10788.162533      0.004114                    
P 15   3448.889965 -25701.930120  -5104.951562   -105.241452                    
V 15   5155.110405  -5315.729692  30605.793741     -0.011573                    
P 16  -6778.012741  14108.936709  21394.065104   -251.795420                    
V 16 -17955.251889 -20419.612350   8092.363834     -0.002913                    
P 17  16463.254113  -5018.873374 -19960.998770     59.388605                    
V 17  -7513.154434  24762.383271 -12539.420531     -0.036527                    
P 18 -20761.892106 -15313.597209  -6659.184962    234.516539                    
V 18  -3469.749115  -8900.375666  29227.681995      0.018592                    
P 19  -7913.003384  24921.164962  -3241.075247   -340.106128                    
V 19  -4415.482340   2570.771092  31695.619299     -0.033345                    
P 20  10907.251396  21880.660624 -10639.905655     80.149677                    
V 20 -11751.983665  -7016.085157 -26842.443672      0.014348                    
P 21 -22284.427198  -5860.294353  14203.649595   -274.730558                    
V 21  16108.900353  -5934.236407  23171.403391     -0.022970                    
P 22 -20377.560262  -4008.654318 -16445.778190    155.847303                    
V 22 -12511.741957 -17397.673050  19393.323219      0.010759                    
P 23   1912.099196  23051.941643  12763.719862    123.638464                    
V 23  -7544.077395  14646.929838 -25815.659132     -0.037692                    
P 24    467.331790 -15583.047114 -21500.428193      0.614706                    
V 24  26698.607187  -5760.958596   4779.964021     -0.006146                    
P 25 -17945.405048 -19636.795508   -439.238304     63.079903                    
V 25   2118.766083  -1278.518133 -31924.509345      0.025801                    
P 26  12803.553655 -22396.232139   4829.093074   -137.452435                    
V 26   -358.192426   7416.622238  31638.105453      0.137833                    
P 28  20043.487926   9191.963598 -14367.032366    223.694565                    
V 28  10896.859953  15828.851684  24163.376983      0.035345                    
P 29  -8184.009702 -16435.643333  19260.385382    398.168832                    
V 29   9504.002704 -22414.806896 -15092.547025      0.038717                    
P 30 -15062.302224   5917.150710  20705.503800   -251.903542                    
V 30 -19709.368346 -18623.251123  -8887.286263      0.103625                    
P 31 -24836.136234   8490.909024   5120.454073    297.731688                    
V 31  -6446.288328   -615.889551 -31146.086438      0.018700                    
P 32   2792.486740  21620.780852 -15363.466458   -526.449856                    
V 32 -13516.531940 -14336.792851 -21901.336048     -0.035189                    
EOF
